ONEWEB-0572             
1 55151U 23004M   25216.56175688 -.00000050  00000+0 -16165-3 0  9996
2 55151  87.9037  68.8809 0001582  84.6101 275.5211 13.17647790125789
ONEWEB-0573             
1 55152U 23004N   25216.48169560  .00000027  00000+0  34841-4 0  9994
2 55152  87.9110  38.4201 0000942  78.4380 281.6858 13.18687075127957
ONEWEB-0588             
1 55153U 23004P   25216.47509835  .00000051  00000+0  96912-4 0  9991
2 55153  87.9115  38.4057 0001342  96.4595 263.6690 13.18685878127958
ONEWEB-0598             
1 55154U 23004Q   25216.60495395  .00000113  00000+0  28173-3 0  9994
2 55154  87.8799  84.1812 0001635  59.5830 300.5459 13.11418523124405
ONEWEB-0599             
1 55155U 23004R   25216.59888888  .00000048  00000+0  90874-4 0  9991
2 55155  87.9037  68.8778 0001829  78.3505 281.7831 13.17649743125798
ONEWEB-0614             
1 55156U 23004S   25216.14208382  .00000022  00000+0  27620-4 0  9999
2 55156  87.8802  84.2834 0001606  91.6693 268.4619 13.11418507124287
ONEWEB-0616             
1 55157U 23004T   25216.10951759  .00000090  00000+0  19757-3 0  9995
2 55157  87.9038  68.9664 0002707  74.9334 285.2096 13.17648209125949
ONEWEB-0617             
1 55158U 23004U   25216.58798808 -.00000548  00000+0 -15835-2 0  9994
2 55158  87.8795  84.1734 0001414  87.0020 273.1269 13.11416308124368
ONEWEB-0618             
1 55159U 23004V   25216.24455538  .00000945  00000+0  16215-3 0  9991
2 55159  86.9104 304.7172 0015173  27.9828 332.2200 14.67575303134610
ONEWEB-0619             
1 55160U 23004W   25216.59719633  .00000062  00000+0  12701-3 0  9996
2 55160  87.9030  68.8451 0002097  96.3621 263.7749 13.17648646125904
ONEWEB-0620             
1 55161U 23004X   25216.58290292 -.00000569  00000+0 -16411-2 0  9996
2 55161  87.8798  84.1956 0001575  76.6963 283.4340 13.11416281124330
ONEWEB-0621             
1 55162U 23004Y   25216.61004874  .00000327  00000+0  88688-3 0  9996
2 55162  87.8807  84.1462 0001801  88.7954 271.3380 13.11417330124314
ONEWEB-0622             
1 55163U 23004Z   25216.38624288  .00000493  00000+0  13545-2 0  9991
2 55163  87.8797  84.2141 0001179 103.9353 256.1906 13.11418133124271
ONEWEB-0623             
1 55164U 23004AA  25216.59213279  .00000075  00000+0  15940-3 0  9997
2 55164  87.9030  68.9028 0001663 110.3069 249.8242 13.17650353125899
ONEWEB-0624             
1 55165U 23004AB  25216.46933764  .00000362  00000+0  96403-3 0  9994
2 55165  87.8852  53.6126 0001762  89.2613 270.8718 13.12942177126515
ONEWEB-0625             
1 55166U 23004AC  25216.58200777  .00000059  00000+0  11975-3 0  9993
2 55166  87.9030  68.9021 0001910  82.1269 278.0080 13.17648518125880
ONEWEB-0626             
1 55167U 23004AD  25216.57188045  .00000022  00000+0  23663-4 0  9994
2 55167  87.9031  68.9025 0001543  66.6915 293.4379 13.17647722125881
