[{"OBJECT_NAME":"ONEWEB-0572","OBJECT_ID":"2023-004M","EPOCH":"2025-08-04T13:28:55.794432","MEAN_MOTION":13.1764779,"ECCENTRICITY":0.0001582,"INCLINATION":87.9037,"RA_OF_ASC_NODE":68.8809,"ARG_OF_PERICENTER":84.6101,"MEAN_ANOMALY":275.5211,"EPHEMERIS_TYPE":0,"CLASSIFICATION_TYPE":"U","NORAD_CAT_ID":55151,"ELEMENT_SET_NO":999,"REV_AT_EPOCH":12578,"BSTAR":-0.00016165,"MEAN_MOTION_DOT":-5.0e-7,"MEAN_MOTION_DDOT":0},{"OBJECT_NAME":"ONEWEB-0573","OBJECT_ID":"2023-004N","EPOCH":"2025-08-04T11:33:38.499840","MEAN_MOTION":13.18687075,"ECCENTRICITY":9.42e-5,"INCLINATION":87.911,"RA_OF_ASC_NODE":38.4201,"ARG_OF_PERICENTER":78.438,"MEAN_ANOMALY":281.6858,"EPHEMERIS_TYPE":0,"CLASSIFICATION_TYPE":"U","NORAD_CAT_ID":55152,"ELEMENT_SET_NO":999,"REV_AT_EPOCH":12795,"BSTAR":3.4841e-5,"MEAN_MOTION_DOT":2.7e-7,"MEAN_MOTION_DDOT":0},{"OBJECT_NAME":"ONEWEB-0588","OBJECT_ID":"2023-004P","EPOCH":"2025-08-04T11:24:08.497440","MEAN_MOTION":13.18685878,"ECCENTRICITY":0.0001342,"INCLINATION":87.9115,"RA_OF_ASC_NODE":38.4057,"ARG_OF_PERICENTER":96.4595,"MEAN_ANOMALY":263.669,"EPHEMERIS_TYPE":0,"CLASSIFICATION_TYPE":"U","NORAD_CAT_ID":55153,"ELEMENT_SET_NO":999,"REV_AT_EPOCH":12795,"BSTAR":9.6912e-5,"MEAN_MOTION_DOT":5.1e-7,"MEAN_MOTION_DDOT":0},{"OBJECT_NAME":"ONEWEB-0598","OBJECT_ID":"2023-004Q","EPOCH":"2025-08-04T14:31:08.021280","MEAN_MOTION":13.11418523,"ECCENTRICITY":0.0001635,"INCLINATION":87.8799,"RA_OF_ASC_NODE":84.1812,"ARG_OF_PERICENTER":59.583,"MEAN_ANOMALY":300.5459,"EPHEMERIS_TYPE":0,"CLASSIFICATION_TYPE":"U","NORAD_CAT_ID":55154,"ELEMENT_SET_NO":999,"REV_AT_EPOCH":12440,"BSTAR":0.00028173,"MEAN_MOTION_DOT":1.13e-6,"MEAN_MOTION_DDOT":0},{"OBJECT_NAME":"ONEWEB-0599","OBJECT_ID":"2023-004R","EPOCH":"2025-08-04T14:22:23.999232","MEAN_MOTION":13.17649743,"ECCENTRICITY":0.0001829,"INCLINATION":87.9037,"RA_OF_ASC_NODE":68.8778,"ARG_OF_PERICENTER":78.3505,"MEAN_ANOMALY":281.7831,"EPHEMERIS_TYPE":0,"CLASSIFICATION_TYPE":"U","NORAD_CAT_ID":55155,"ELEMENT_SET_NO":999,"REV_AT_EPOCH":12579,"BSTAR":9.0874e-5,"MEAN_MOTION_DOT":4.8e-7,"MEAN_MOTION_DDOT":0},{"OBJECT_NAME":"ONEWEB-0614","OBJECT_ID":"2023-004S","EPOCH":"2025-08-04T03:24:36.042048","MEAN_MOTION":13.11418507,"ECCENTRICITY":0.0001606,"INCLINATION":87.8802,"RA_OF_ASC_NODE":84.2834,"ARG_OF_PERICENTER":91.6693,"MEAN_ANOMALY":268.4619,"EPHEMERIS_TYPE":0,"CLASSIFICATION_TYPE":"U","NORAD_CAT_ID":55156,"ELEMENT_SET_NO":999,"REV_AT_EPOCH":12428,"BSTAR":2.762e-5,"MEAN_MOTION_DOT":2.2e-7,"MEAN_MOTION_DDOT":0},{"OBJECT_NAME":"ONEWEB-0616","OBJECT_ID":"2023-004T","EPOCH":"2025-08-04T02:37:42.319776","MEAN_MOTION":13.17648209,"ECCENTRICITY":0.0002707,"INCLINATION":87.9038,"RA_OF_ASC_NODE":68.9664,"ARG_OF_PERICENTER":74.9334,"MEAN_ANOMALY":285.2096,"EPHEMERIS_TYPE":0,"CLASSIFICATION_TYPE":"U","NORAD_CAT_ID":55157,"ELEMENT_SET_NO":999,"REV_AT_EPOCH":12594,"BSTAR":0.00019757,"MEAN_MOTION_DOT":9.0e-7,"MEAN_MOTION_DDOT":0},{"OBJECT_NAME":"ONEWEB-0617","OBJECT_ID":"2023-004U","EPOCH":"2025-08-04T14:06:42.170112","MEAN_MOTION":13.11416308,"ECCENTRICITY":0.0001414,"INCLINATION":87.8795,"RA_OF_ASC_NODE":84.1734,"ARG_OF_PERICENTER":87.002,"MEAN_ANOMALY":273.1269,"EPHEMERIS_TYPE":0,"CLASSIFICATION_TYPE":"U","NORAD_CAT_ID":55158,"ELEMENT_SET_NO":999,"REV_AT_EPOCH":12436,"BSTAR":-0.0015835,"MEAN_MOTION_DOT":-5.48e-6,"MEAN_MOTION_DDOT":0},{"OBJECT_NAME":"ONEWEB-0618","OBJECT_ID":"2023-004V","EPOCH":"2025-08-04T05:52:09.584832","MEAN_MOTION":14.67575303,"ECCENTRICITY":0.0015173,"INCLINATION":86.9104,"RA_OF_ASC_NODE":304.7172,"ARG_OF_PERICENTER":27.9828,"MEAN_ANOMALY":332.22,"EPHEMERIS_TYPE":0,"CLASSIFICATION_TYPE":"U","NORAD_CAT_ID":55159,"ELEMENT_SET_NO":999,"REV_AT_EPOCH":13461,"BSTAR":0.00016215,"MEAN_MOTION_DOT":9.45e-6,"MEAN_MOTION_DDOT":0},{"OBJECT_NAME":"ONEWEB-0619","OBJECT_ID":"2023-004W","EPOCH":"2025-08-04T14:19:57.762912","MEAN_MOTION":13.17648646,"ECCENTRICITY":0.0002097,"INCLINATION":87.903,"RA_OF_ASC_NODE":68.8451,"ARG_OF_PERICENTER":96.3621,"MEAN_ANOMALY":263.7749,"EPHEMERIS_TYPE":0,"CLASSIFICATION_TYPE":"U","NORAD_CAT_ID":55160,"ELEMENT_SET_NO":999,"REV_AT_EPOCH":12590,"BSTAR":0.00012701,"MEAN_MOTION_DOT":6.2e-7,"MEAN_MOTION_DDOT":0},{"OBJECT_NAME":"ONEWEB-0620","OBJECT_ID":"2023-004X","EPOCH":"2025-08-04T13:59:22.812288","MEAN_MOTION":13.11416281,"ECCENTRICITY":0.0001575,"INCLINATION":87.8798,"RA_OF_ASC_NODE":84.1956,"ARG_OF_PERICENTER":76.6963,"MEAN_ANOMALY":283.434,"EPHEMERIS_TYPE":0,"CLASSIFICATION_TYPE":"U","NORAD_CAT_ID":55161,"ELEMENT_SET_NO":999,"REV_AT_EPOCH":12433,"BSTAR":-0.0016411,"MEAN_MOTION_DOT":-5.69e-6,"MEAN_MOTION_DDOT":0},{"OBJECT_NAME":"ONEWEB-0621","OBJECT_ID":"2023-004Y","EPOCH":"2025-08-04T14:38:28.211136","MEAN_MOTION":13.1141733,"ECCENTRICITY":0.0001801,"INCLINATION":87.8807,"RA_OF_ASC_NODE":84.1462,"ARG_OF_PERICENTER":88.7954,"MEAN_ANOMALY":271.338,"EPHEMERIS_TYPE":0,"CLASSIFICATION_TYPE":"U","NORAD_CAT_ID":55162,"ELEMENT_SET_NO":999,"REV_AT_EPOCH":12431,"BSTAR":0.00088688,"MEAN_MOTION_DOT":3.27e-6,"MEAN_MOTION_DDOT":0},{"OBJECT_NAME":"ONEWEB-0622","OBJECT_ID":"2023-004Z","EPOCH":"2025-08-04T09:16:11.384832","MEAN_MOTION":13.11418133,"ECCENTRICITY":0.0001179,"INCLINATION":87.8797,"RA_OF_ASC_NODE":84.2141,"ARG_OF_PERICENTER":103.9353,"MEAN_ANOMALY":256.1906,"EPHEMERIS_TYPE":0,"CLASSIFICATION_TYPE":"U","NORAD_CAT_ID":55163,"ELEMENT_SET_NO":999,"REV_AT_EPOCH":12427,"BSTAR":0.0013545,"MEAN_MOTION_DOT":4.93e-6,"MEAN_MOTION_DDOT":0},{"OBJECT_NAME":"ONEWEB-0623","OBJECT_ID":"2023-004AA","EPOCH":"2025-08-04T14:12:40.273056","MEAN_MOTION":13.17650353,"ECCENTRICITY":0.0001663,"INCLINATION":87.903,"RA_OF_ASC_NODE":68.9028,"ARG_OF_PERICENTER":110.3069,"MEAN_ANOMALY":249.8242,"EPHEMERIS_TYPE":0,"CLASSIFICATION_TYPE":"U","NORAD_CAT_ID":55164,"ELEMENT_SET_NO":999,"REV_AT_EPOCH":12589,"BSTAR":0.0001594,"MEAN_MOTION_DOT":7.5e-7,"MEAN_MOTION_DDOT":0},{"OBJECT_NAME":"ONEWEB-0624","OBJECT_ID":"2023-004AB","EPOCH":"2025-08-04T11:15:50.772096","MEAN_MOTION":13.12942177,"ECCENTRICITY":0.0001762,"INCLINATION":87.8852,"RA_OF_ASC_NODE":53.6126,"ARG_OF_PERICENTER":89.2613,"MEAN_ANOMALY":270.8718,"EPHEMERIS_TYPE":0,"CLASSIFICATION_TYPE":"U","NORAD_CAT_ID":55165,"ELEMENT_SET_NO":999,"REV_AT_EPOCH":12651,"BSTAR":0.00096403,"MEAN_MOTION_DOT":3.62e-6,"MEAN_MOTION_DDOT":0},{"OBJECT_NAME":"ONEWEB-0625","OBJECT_ID":"2023-004AC","EPOCH":"2025-08-04T13:58:05.471328","MEAN_MOTION":13.17648518,"ECCENTRICITY":0.000191,"INCLINATION":87.903,"RA_OF_ASC_NODE":68.9021,"ARG_OF_PERICENTER":82.1269,"MEAN_ANOMALY":278.008,"EPHEMERIS_TYPE":0,"CLASSIFICATION_TYPE":"U","NORAD_CAT_ID":55166,"ELEMENT_SET_NO":999,"REV_AT_EPOCH":12588,"BSTAR":0.00011975,"MEAN_MOTION_DOT":5.9e-7,"MEAN_MOTION_DDOT":0},{"OBJECT_NAME":"ONEWEB-0626","OBJECT_ID":"2023-004AD","EPOCH":"2025-08-04T13:43:30.470880","MEAN_MOTION":13.17647722,"ECCENTRICITY":0.0001543,"INCLINATION":87.9031,"RA_OF_ASC_NODE":68.9025,"ARG_OF_PERICENTER":66.6915,"MEAN_ANOMALY":293.4379,"EPHEMERIS_TYPE":0,"CLASSIFICATION_TYPE":"U","NORAD_CAT_ID":55167,"ELEMENT_SET_NO":999,"REV_AT_EPOCH":12588,"BSTAR":2.3663e-5,"MEAN_MOTION_DOT":2.2e-7,"MEAN_MOTION_DDOT":0}]
